{"type": "FeatureCollection", "features": [{"type": "Feature", "properties": {"norad_id": 50032, "name": "COSMOS 1408 DEB", "group": "cosmos-1408-debris", "lat": 78.9806012884201, "lon": -176.82093440027444, "alt_km": 416.5332116070458, "timestamp": "2025-12-25T14:48:25.047326+00:00", "meta": {"OBJECT_NAME": "COSMOS 1408 DEB", "OBJECT_ID": "1982-092RU", "EPOCH": "2025-12-25T03:30:30.158496", "MEAN_MOTION": 15.45815363, "ECCENTRICITY": 0.00165175, "INCLINATION": 82.5629, "RA_OF_ASC_NODE": 45.7917, "ARG_OF_PERICENTER": 162.9312, "MEAN_ANOMALY": 197.2496, "EPHEMERIS_TYPE": 0, "CLASSIFICATION_TYPE": "U", "NORAD_CAT_ID": 50032, "ELEMENT_SET_NO": 999, "REV_AT_EPOCH": 22795, "BSTAR": 0.00010820579, "MEAN_MOTION_DOT": 5.311e-05, "MEAN_MOTION_DDOT": 0}, "tle": {"line1": "1 50032U 82092RU  25359.14618239  .00005311  00000+0  10821-3 0  9993", "line2": "2 50032  82.5629  45.7917 0016517 162.9312 197.2496 15.45815363227955"}}, "geometry": {"type": "Point", "coordinates": [-176.82093440027444, 78.9806012884201]}}, {"type": "Feature", "properties": {"norad_id": 50058, "name": "COSMOS 1408 DEB", "group": "cosmos-1408-debris", "lat": 81.99547093152235, "lon": 123.19287673997655, "alt_km": 357.038919091613, "timestamp": "2025-12-25T14:48:25.047343+00:00", "meta": {"OBJECT_NAME": "COSMOS 1408 DEB", "OBJECT_ID": "1982-092SW", "EPOCH": "2025-12-25T05:13:47.166528", "MEAN_MOTION": 15.6485274, "ECCENTRICITY": 0.00158006, "INCLINATION": 82.6117, "RA_OF_ASC_NODE": 56.274, "ARG_OF_PERICENTER": 56.9176, "MEAN_ANOMALY": 303.3598, "EPHEMERIS_TYPE": 0, "CLASSIFICATION_TYPE": "U", "NORAD_CAT_ID": 50058, "ELEMENT_SET_NO": 999, "REV_AT_EPOCH": 22999, "BSTAR": 0.00033022718, "MEAN_MOTION_DOT": 0.00032499, "MEAN_MOTION_DDOT": 0}, "tle": {"line1": "1 50058U 82092SW  25359.21790702  .00032499  00000+0  33023-3 0  9991", "line2": "2 50058  82.6117  56.2740 0015800  56.9176 303.3598 15.64852740229991"}}, "geometry": {"type": "Point", "coordinates": [123.19287673997655, 81.99547093152235]}}, {"type": "Feature", "properties": {"norad_id": 50404, "name": "COSMOS 1408 DEB", "group": "cosmos-1408-debris", "lat": 54.06279467328389, "lon": -147.27205874479802, "alt_km": 530.8414320057964, "timestamp": "2025-12-25T14:48:25.047354+00:00", "meta": {"OBJECT_NAME": "COSMOS 1408 DEB", "OBJECT_ID": "1982-092ADS", "EPOCH": "2025-12-25T00:18:07.841664", "MEAN_MOTION": 15.15742025, "ECCENTRICITY": 0.01667949, "INCLINATION": 82.202, "RA_OF_ASC_NODE": 202.4509, "ARG_OF_PERICENTER": 156.6613, "MEAN_ANOMALY": 204.2309, "EPHEMERIS_TYPE": 0, "CLASSIFICATION_TYPE": "U", "NORAD_CAT_ID": 50404, "ELEMENT_SET_NO": 999, "REV_AT_EPOCH": 21379, "BSTAR": 0.0033615862, "MEAN_MOTION_DOT": 0.00092417, "MEAN_MOTION_DDOT": 0}, "tle": {"line1": "1 50404U 82092ADS 25359.01259076  .00092417  00000+0  33616-2 0  9991", "line2": "2 50404  82.2020 202.4509 0166794 156.6613 204.2309 15.15742025213796"}}, "geometry": {"type": "Point", "coordinates": [-147.27205874479802, 54.06279467328389]}}, {"type": "Feature", "properties": {"norad_id": 50621, "name": "COSMOS 1408 DEB", "group": "cosmos-1408-debris", "lat": 62.77002375362103, "lon": -133.9266245139424, "alt_km": 369.94468468269497, "timestamp": "2025-12-25T14:48:25.047364+00:00", "meta": {"OBJECT_NAME": "COSMOS 1408 DEB", "OBJECT_ID": "1982-092ALR", "EPOCH": "2025-12-24T10:33:08.293248", "MEAN_MOTION": 15.57249647, "ECCENTRICITY": 0.00291087, "INCLINATION": 82.5683, "RA_OF_ASC_NODE": 61.9949, "ARG_OF_PERICENTER": 110.4695, "MEAN_ANOMALY": 249.969, "EPHEMERIS_TYPE": 0, "CLASSIFICATION_TYPE": "U", "NORAD_CAT_ID": 50621, "ELEMENT_SET_NO": 999, "REV_AT_EPOCH": 22432, "BSTAR": 0.00038535081, "MEAN_MOTION_DOT": 0.00028709, "MEAN_MOTION_DDOT": 0}, "tle": {"line1": "1 50621U 82092ALR 25358.43967932  .00028709  00000+0  38535-3 0  9993", "line2": "2 50621  82.5683  61.9949 0029108 110.4695 249.9690 15.57249647224324"}}, "geometry": {"type": "Point", "coordinates": [-133.9266245139424, 62.77002375362103]}}]}